CARTOSAT-2D             
1 41948U 17008A   22313.92172661  .00006207  00000+0  29769-3 0  9997
2 41948  97.4473  11.7443 0006319 167.8639 192.2704 15.19233319317880
SENTINEL-2B             
1 42063U 17013A   22312.84386198 -.00000045  00000+0 -70761-6 0  9991
2 42063  98.5680  25.5111 0001369 112.3276 247.8028 14.30813134296410
ZHUHAI-1 02 (CAS-4B)    
1 42759U 17034B   22314.21575119  .00009923  00000+0  56086-3 0  9995
2 42759  43.0186 248.6527 0009000 137.8037  21.2132 15.13177641298425
NUSAT-3 (MILANESAT)     
1 42760U 17034C   22314.14760561  .00009700  00000+0  53539-3 0  9999
2 42760  43.0138 242.8600 0009546 162.0829 332.7201 15.14043064298492
ZHUHAI-1 01 (CAS-4A)    
1 42761U 17034D   22314.23558234  .00009968  00000+0  56190-3 0  9994
2 42761  43.0177 247.2221 0009264 138.5226 339.0314 15.13267917298433
CARTOSAT-2E             
1 42767U 17036C   22314.68569280 -.00000068  00000+0  00000+0 0  9992
2 42767  97.4386  13.1460 0006640 241.6380 236.0257 15.19270565298566
FORMOSAT-5              
1 42920U 17049A   22313.80999971 -.00005094  00000+0 -12818-2 0  9992
2 42920  98.2761  28.3408 0011188 158.1574 202.0086 14.50827333275948
SENTINEL-5P             
1 42969U 17064A   22313.74149629  .00000103  00000+0  69878-4 0  9996
2 42969  98.7453 251.5486 0000996  81.5708 278.5581 14.19523911262936
SKYSAT-C11              
1 42987U 17068A   22314.14185233  .00014151  00000+0  37499-3 0  9997
2 42987  97.3064  72.2251 0002866 193.4158 166.7011 15.38447181280782
SKYSAT-C10              
1 42988U 17068B   22313.84973276  .00015660  00000+0  41489-3 0  9996
2 42988  97.3117  72.2708 0003411 103.9638 256.1987 15.38429122280764
SKYSAT-C9               
1 42989U 17068C   22313.83647752  .00017004  00000+0  44884-3 0  9999
2 42989  97.3050  71.2877 0001482  43.7141 316.4221 15.38528735280955
SKYSAT-C8               
1 42990U 17068D   22313.89556429  .00016028  00000+0  42383-3 0  9994
2 42990  97.3127  72.7519 0003049  64.1351 296.0208 15.38484632280799
SKYSAT-C7               
1 42991U 17068E   22313.87253512  .00016324  00000+0  43212-3 0  9991
2 42991  97.3129  72.8140 0002996 201.4565 158.6555 15.38446503280799
SKYSAT-C6               
1 42992U 17068F   22313.86347236  .00015828  00000+0  41928-3 0  9998
2 42992  97.3149  73.2262 0003702 180.6422 179.4819 15.38430666280807
CARTOSAT-2F             
1 43111U 18004A   22314.18314071  .00007761  00000+0  37095-3 0  9997
2 43111  97.4312  12.4494 0003291 237.7156 197.2003 15.19281920267676
NUSAT-4 (ADA)           
1 43195U 18015D   22314.17968722  .00025978  00000+0  78069-3 0  9994
2 43195  97.5528  97.9109 0013373 249.0943 285.6162 15.34306432265546
NUSAT-5 (MARYAM)        
1 43204U 18015K   22314.19160014  .00027022  00000+0  79944-3 0  9990
2 43204  97.5542  98.6105 0012889 249.1353 236.9018 15.34798904265182
GAOFEN 1-02             
1 43259U 18031A   22314.21710560  .00001199  00000+0  17919-3 0  9999
2 43259  97.8880  27.5730 0002432 249.0407 111.0556 14.76529470248655
GAOFEN 1-03             
1 43260U 18031B   22313.99225107 -.00008709  00000+0 -12446-2 0  9998
2 43260  97.8886  27.3113 0004596 347.1646  12.9625 14.76507777248612
GAOFEN 1-04             
1 43262U 18031D   22314.23863076 -.00014004  00000+0 -20076-2 0  9994
2 43262  97.8880  27.6008 0003694 284.9970  75.0842 14.76507304248640
SENTINEL-3B             
1 43437U 18039A   22313.20221132  .00000179  00000+0  92120-4 0  9990
2 43437  98.6294  18.4413 0001200 117.4705 242.6597 14.26737236236478
GAOFEN 5-01             
1 43461U 18043A   22313.84180632  .00000629  00000+0  14684-3 0  9999
2 43461  98.2844 253.6275 0001727 159.4450 200.6818 14.58090497239848
GAOFEN 6                
1 43484U 18048A   22314.00132653  .00001732  00000+0  25580-3 0  9991
2 43484  97.9203  31.6226 0010153  99.4225 260.8113 14.76491942239312
GAOFEN 11-1             
1 43585U 18063A   22314.15613940  .00010474  00000+0  43825-3 0  9994
2 43585  97.3075  26.6116 0012988  37.4601  46.3393 15.23676686238572
AEOLUS                  
1 43600U 18066A   22314.17206580  .00108891  00000+0  42462-3 0  9992
2 43600  96.7320 317.6648 0011184 107.3724 252.8773 15.86688520244234
ICESAT-2                
1 43613U 18070A   22313.88122194  .00004420  00000+0  16026-3 0  9996
2 43613  91.9982 297.3541 0005968 121.5375 238.6458 15.28305918231587
HYSIS                   
1 43719U 18096A   22314.12816931  .00002052  00000+0  28689-3 0  9995
2 43719  97.9419  18.4559 0003263  90.9150 269.2464 14.78671669213087
KAZSTSAT                
1 43783U 18099AB  22313.83439614  .00001238  00000+0  12059-3 0  9994
2 43783  97.6134  14.9169 0008840 136.2916 223.9006 14.94211660214514
SAUDISAT 5A             
1 43831U 18102A   22314.19404574  .00004058  00000+0  25417-3 0  9995
2 43831  97.4840  24.0082 0015159  43.4491  40.9941 15.09828940216164
SAUDISAT 5B             
1 43833U 18102C   22314.23908234  .00003743  00000+0  23187-3 0  9996
2 43833  97.4855  25.1277 0015928  48.6341  27.6931 15.10278727216227
GAOFEN 10R              
1 44622U 19066A   22314.23227405  .00002006  00000+0  26509-3 0  9999
2 44622  97.9056 251.3286 0000215 215.8181 144.3027 14.81093235167581
CARTOSAT-3              
1 44804U 19081A   22314.18389596  .00006553  00000+0  31309-3 0  9997
2 44804  97.3794  12.6391 0013609  70.2704 318.7171 15.19277131163760
GAOFEN 12-1             
1 44819U 19082A   22314.20711743  .00000856  00000+0  11893-3 0  9996
2 44819  97.8541 331.5638 0001671  92.0429 268.0967 14.80332380159502
CSG-1                   
1 44873U 19092A   22314.21623195  .00001194  00000+0  15654-3 0  9996
2 44873  97.8877 135.8112 0001293  93.0923 267.0392 14.82153395156693
NUSAT-7 (SOPHIE)        
1 45017U 20003B   22314.12886824  .00027212  00000+0  71142-3 0  9994
2 45017  97.1979  13.0303 0010939 187.4429 256.5916 15.38669275157591
NUSAT-8 (MARIE)         
1 45018U 20003C   22314.15953586  .00034916  00000+0  80693-3 0  9998
2 45018  97.2111  15.7013 0009776 185.1539 259.4150 15.42380617157689
NUSAT-6 (HYPATIA)       
1 46272U 20061A   22313.95670433  .00014620  00000+0  55161-3 0  9991
2 46272  97.3118  21.8987 0005142 282.1592  77.9079 15.27125429121414
NEMO-HD                 
1 46277U 20061F   22314.15266804  .00005845  00000+0  28777-3 0  9994
2 46277  97.3763  21.2680 0002633  64.3798  19.3205 15.18350274120967
NUSAT-12 (DOROTHY)      
1 46827U 20079A   22314.16090022  .00035070  00000+0  81600-3 0  9999
2 46827  97.1821  21.5711 0008336 129.0932 314.9753 15.42188739112521
NUSAT-9 (ALICE)         
1 46828U 20079B   22314.17862490  .00036869  00000+0  84013-3 0  9995
2 46828  97.1695  21.1114 0003643 155.3735 289.6422 15.42834655112574
NUSAT-11 (CORA)         
1 46829U 20079C   22314.17445469  .00036571  00000+0  83134-3 0  9992
2 46829  97.1747  21.5156 0006934 141.7539 303.2866 15.42889734112562
NUSAT-15 (KATHERINE)    
1 46830U 20079D   22314.17280800  .00036276  00000+0  82902-3 0  9994
2 46830  97.1900  22.9390 0004454 113.5236 330.6412 15.42747877112579
NUSAT-14 (HEDY)         
1 46831U 20079E   22314.19267656  .00038034  00000+0  83756-3 0  9993
2 46831  97.1869  22.8838 0008129 128.4834 308.8854 15.43820026112590
NUSAT-10 (CAROLINE)     
1 46832U 20079F   22314.15689125  .00033048  00000+0  76847-3 0  9992
2 46832  97.1864  22.3704 0007673 141.0350 302.8947 15.42226063112553
NUSAT-13 (EMMY)         
1 46833U 20079G   22314.17099012  .00032385  00000+0  75990-3 0  9996
2 46833  97.1872  22.3270 0007856 140.6669 303.5524 15.41956505112551
NUSAT-17 (MARY)         
1 46835U 20079J   22314.15553041  .00032991  00000+0  77761-3 0  9994
2 46835  97.1860  22.0317 0007715 151.5182 292.3724 15.41818022112530
NUSAT-18 (VERA)         
1 46836U 20079K   22314.15427234  .00034714  00000+0  80046-3 0  9994
2 46836  97.1868  22.5555 0008515 160.0441 283.8580 15.42461010112560
NUSAT-16 (LISE)         
1 46840U 20079P   22314.18116383  .00035870  00000+0  82277-3 0  9994
2 46840  97.1910  22.7613 0005814 150.0875 294.3388 15.42632739112560
SENTINEL-6              
1 46984U 20086A   22314.28675728 -.00000061  00000+0  00000+0 0  9990
2 46984  66.0462 346.1253 0007862 264.5464  95.4655 12.80929192 92047
GAOFEN 12-2             
1 48079U 21026A   22314.24021254  .00000329  00000+0  49948-4 0  9992
2 48079  97.9057 302.6219 0001517  95.3254 264.8138 14.80278589 87191
PLEIADES NEO 3          
1 48268U 21034A   22314.19342398  .00001598  00000+0  20959-3 0  9999
2 48268  97.8946  26.8321 0001313  93.8482 266.2882 14.81671909 82939
NUSAT-19 (ROSALIND)     
1 48905U 21059AC  22314.15837010  .00013855  00000+0  62013-3 0  9996
2 48905  97.5272  83.4177 0008620 287.2048 197.5482 15.21364207 76209
NUSAT-22 (SOFYA)        
1 48919U 21059AS  22314.21302177  .00027077  00000+0  79212-3 0  9999
2 48919  97.3738  85.7536 0012594 235.2227 245.8311 15.35153523 76895
NUSAT-21 (ELISA)        
1 48920U 21059AT  22314.17635738  .00031907  00000+0  82559-3 0  9993
2 48920  97.3690  85.6116 0011849 241.4843 241.9942 15.38946606 76928
NUSAT-20 (GRACE)        
1 48921U 21059AU  22314.19011666  .00029139  00000+0  79444-3 0  9997
2 48921  97.3805  86.0401 0014394 263.1096 220.1253 15.37316496 76907
PLEIADES NEO 4          
1 49070U 21073E   22314.15962918  .00002470  00000+0  32027-3 0  9995
2 49070  97.8944  26.7940 0001272  98.0995 262.0392 14.81680717 66642
LANDSAT 9               
1 49260U 21088A   22314.17582385  .00000499  00000+0  12091-3 0  9998
2 49260  98.2133  22.5065 0001155 105.5167 254.6159 14.57105818 59495
CSG-2                   
1 51444U 22008A   22314.18245543  .00000235  00000+0  36065-4 0  9997
2 51444  97.8878 135.7767 0001428  96.7736 263.3612 14.82166604 41800
INS-2TD                 
1 51658U 22013C   22313.81986974  .00010055  00000+0  52155-3 0  9997
2 51658  97.5552 321.1559 0012141  58.1683 302.0730 15.16284015 40682
GAOFEN 12-3             
1 52912U 22069A   22314.19187109  .00002993  00000+0  39801-3 0  9992
2 52912  97.9727 200.8376 0003109  80.8343 279.3213 14.80471524 20046
